NORAD_CAT_ID,OBJECT_NAME,OBJECT_TYPE,EPOCH,MEAN_MOTION,ECCENTRICITY,INCLINATION,RA_OF_ASC_NODE,ARG_OF_PERICENTER,MEAN_ANOMALY,BSTAR,MEAN_MOTION_DOT,MEAN_MOTION_DDOT,TLE_LINE0,TLE_LINE1,TLE_LINE2,SEMIMAJOR_AXIS,PERIOD,APOGEE,PERIGEE,DECAYED
53396.0,STARLINK-4524,PAYLOAD,2023-05-16 02:39:33,15.08832736,0.000124,53.2183,61.5898,86.1326,273.9808,4.7883e-05,4.74e-06,0.0,0 STARLINK-4524,1 53396U 22097J   23136.11080303  .00000474  00000-0  47883-4 0  9996,2 53396  53.2183  61.5898 0001240  86.1326 273.9808 15.08832736 42747,6917.903,95.438,540.625,538.91,0.0
53396.0,STARLINK-4524,PAYLOAD,2023-05-16 18:33:24,15.08843144,0.0001368,53.2185,58.6153,79.5679,280.5468,2.0175e-05,3.3e-07,0.0,0 STARLINK-4524,1 53396U 22097J   23136.77319959  .00000033  00000-0  20175-4 0  9996,2 53396  53.2185  58.6153 0001368  79.5679 280.5468 15.08843144 42840,6917.871,95.437,540.682,538.789,0.0
53396.0,STARLINK-4524,PAYLOAD,2023-05-17 00:54:56,15.08846624,0.0001143,53.2176,57.4277,90.216,269.8963,2.9768e-05,1.86e-06,0.0,0 STARLINK-4524,1 53396U 22097J   23137.03815526  .00000186  00000-0  29768-4 0  9993,2 53396  53.2176  57.4277 0001143  90.2160 269.8963 15.08846624 43375,6917.86,95.437,540.516,538.934,0.0
53396.0,STARLINK-4524,PAYLOAD,2023-05-18 00:45:44,15.08837502,0.0001186,53.217,52.9667,79.4372,280.6754,2.5315e-05,1.15e-06,0.0,0 STARLINK-4524,1 53396U 22097J   23138.03176151  .00000115  00000-0  25315-4 0  9994,2 53396  53.2170  52.9667 0001186  79.4372 280.6754 15.08837502 43030,6917.888,95.438,540.573,538.933,0.0
53396.0,STARLINK-4524,PAYLOAD,2023-05-18 21:25:44,15.08872249,0.0001202,53.2163,49.1017,68.5518,291.5602,-0.00032709,-5.494e-05,0.0,0 STARLINK-4524,1 53396U 22097J   23138.89287110 -.00005494  00000-0 -32709-3 0  9997,2 53396  53.2163  49.1017 0001202  68.5518 291.5602 15.08872249 43657,6917.782,95.436,540.478,538.815,0.0
53396.0,STARLINK-4524,PAYLOAD,2023-05-19 03:47:16,15.08848493,0.0001179,53.2167,47.9102,82.7528,277.3599,9.2022e-05,1.177e-05,0.0,0 STARLINK-4524,1 53396U 22097J   23139.15783082  .00001177  00000-0  92022-4 0  9993,2 53396  53.2167  47.9102 0001179  82.7528 277.3599 15.08848493 43206,6917.854,95.437,540.535,538.904,0.0
53396.0,STARLINK-4524,PAYLOAD,2023-05-19 18:05:45,15.08835847,0.0001267,53.2171,45.2318,88.9524,271.1614,3.3814e-05,2.5e-06,0.0,0 STARLINK-4524,1 53396U 22097J   23139.75400019  .00000250  00000-0  33814-4 0  9990,2 53396  53.2171  45.2318 0001267  88.9524 271.1614 15.08835847 43291,6917.893,95.438,540.635,538.882,0.0
53396.0,STARLINK-4524,PAYLOAD,2023-05-19 21:16:31,15.08810967,0.0001286,53.2162,44.6352,97.0393,263.0745,0.00044379,6.777e-05,0.0,0 STARLINK-4524,1 53396U 22097J   23139.88647940  .00006777  00000-0  44379-3 0  9997,2 53396  53.2162  44.6352 0001286  97.0393 263.0745 15.08810967 43806,6917.969,95.439,540.724,538.944,0.0
53396.0,STARLINK-4524,PAYLOAD,2023-05-20 03:38:03,15.08847049,0.0001072,53.2175,43.4483,92.4515,267.6599,0.00010254,1.345e-05,0.0,0 STARLINK-4524,1 53396U 22097J   23140.15143179  .00001345  00000-0  10254-3 0  9995,2 53396  53.2175  43.4483 0001072  92.4515 267.6599 15.08847049 43358,6917.859,95.437,540.465,538.982,0.0
53396.0,STARLINK-4524,PAYLOAD,2023-05-21 03:28:49,15.08858884,0.0001219,53.2182,38.9861,100.2089,259.9041,0.00010759,1.426e-05,0.0,0 STARLINK-4524,1 53396U 22097J   23141.14501836  .00001426  00000-0  10759-3 0  9993,2 53396  53.2182  38.9861 0001219 100.2089 259.9041 15.08858884 43504,6917.823,95.436,540.531,538.844,0.0
53396.0,STARLINK-4524,PAYLOAD,2023-05-21 17:47:20,15.08822456,0.0001042,53.2185,36.311,88.0268,272.0844,-0.00013993,-2.513e-05,0.0,0 STARLINK-4524,1 53396U 22097J   23141.74121287 -.00002513  00000-0 -13993-3 0  9990,2 53396  53.2185  36.3110 0001042  88.0268 272.0844 15.08822456 43594,6917.934,95.439,540.52,539.078,0.0
53396.0,STARLINK-4524,PAYLOAD,2023-05-21 19:22:44,15.08819266,8.13e-05,53.2187,36.0148,69.6504,290.4576,-0.00015767,-2.795e-05,0.0,0 STARLINK-4524,1 53396U 22097J   23141.80745613 -.00002795  00000-0 -15767-3 0  9995,2 53396  53.2187  36.0148 0000813  69.6504 290.4576 15.08819266 44094,6917.944,95.439,540.371,539.246,0.0
53396.0,STARLINK-4524,PAYLOAD,2023-05-22 09:41:12,15.0882552,9.09e-05,53.2185,33.3377,120.8955,239.2127,-0.00010582,-1.971e-05,0.0,0 STARLINK-4524,1 53396U 22097J   23142.40361699 -.00001971  00000-0 -10582-3 0  9995,2 53396  53.2185  33.3377 0000909 120.8955 239.2127 15.08825520 44185,6917.925,95.438,540.418,539.161,0.0
53396.0,STARLINK-4524,PAYLOAD,2023-05-22 19:13:30,15.08850849,0.0001245,53.2187,31.5536,121.9987,238.1126,-0.00021754,-3.749e-05,0.0,0 STARLINK-4524,1 53396U 22097J   23142.80104934 -.00003749  00000-0 -21754-3 0  9994,2 53396  53.2187  31.5536 0001245 121.9987 238.1126 15.08850849 43756,6917.847,95.437,540.574,538.851,0.0
53396.0,STARLINK-4524,PAYLOAD,2023-05-23 22:15:03,15.08842294,9.96e-05,53.2183,26.4993,73.3303,286.7799,0.0004289,6.545e-05,0.0,0 STARLINK-4524,1 53396U 22097J   23143.92712410  .00006545  00000-0  42890-3 0  9991,2 53396  53.2183  26.4993 0000996  73.3303 286.7799 15.08842294 44410,6917.873,95.437,540.427,539.049,0.0
53396.0,STARLINK-4524,PAYLOAD,2023-05-23 23:50:26,15.08851746,9.7e-05,53.217,26.2027,79.6872,280.4229,0.00061422,9.504e-05,0.0,0 STARLINK-4524,1 53396U 22097J   23143.99336786  .00009504  00000-0  61422-3 0  9996,2 53396  53.2170  26.2027 0000970  79.6872 280.4229 15.08851746 43931,6917.844,95.437,540.381,539.038,0.0
53396.0,STARLINK-4524,PAYLOAD,2023-05-24 15:44:18,15.08851581,0.000106,53.2155,23.2314,80.1664,279.9447,0.00021116,3.075e-05,0.0,0 STARLINK-4524,1 53396U 22097J   23144.65576608  .00003075  00000-0  21116-3 0  9992,2 53396  53.2155  23.2314 0001060  80.1664 279.9447 15.08851581 44031,6917.845,95.437,540.443,538.977,0.0
53396.0,STARLINK-4524,PAYLOAD,2023-05-25 18:45:51,15.08846744,0.0001143,53.2166,18.1734,101.9295,258.1826,8.2986e-07,-2.75e-06,0.0,0 STARLINK-4524,1 53396U 22097J   23145.78184274 -.00000275  00000-0  82986-6 0  9996,2 53396  53.2166  18.1734 0001143 101.9295 258.1826 15.08846744 44200,6917.86,95.437,540.515,538.934,0.0
53396.0,STARLINK-4524,PAYLOAD,2023-05-25 21:56:37,15.08850477,0.0001091,53.2171,17.5792,98.2122,261.8994,1.997e-06,-2.56e-06,0.0,0 STARLINK-4524,1 53396U 22097J   23145.91432104 -.00000256  00000-0  19970-5 0  9990,2 53396  53.2171  17.5792 0001091  98.2122 261.8994 15.08850477 44713,6917.848,95.437,540.468,538.959,0.0
53396.0,STARLINK-4524,PAYLOAD,2023-05-26 01:07:23,15.08850185,0.0001059,53.2167,16.9838,101.3486,258.7625,8.29e-05,1.032e-05,0.0,0 STARLINK-4524,1 53396U 22097J   23146.04680030  .00001032  00000-0  82900-4 0  9992,2 53396  53.2167  16.9838 0001059 101.3486 258.7625 15.08850185 44739,6917.849,95.437,540.447,538.982,0.0
53396.0,STARLINK-4524,PAYLOAD,2023-05-26 18:36:38,15.08835077,0.0001292,53.2157,13.7124,100.3112,259.8026,-1.2904e-05,-4.93e-06,0.0,0 STARLINK-4524,1 53396U 22097J   23146.77544906 -.00000493  00000-0 -12904-4 0  9992,2 53396  53.2157  13.7124 0001292 100.3112 259.8026 15.08835077 44353,6917.895,95.438,540.654,538.867,0.0
53396.0,STARLINK-4524,PAYLOAD,2023-05-26 21:47:25,15.08833897,0.000113,53.2177,13.1174,112.4219,247.6893,-5.1418e-06,-3.7e-06,0.0,0 STARLINK-4524,1 53396U 22097J   23146.90793157 -.00000370  00000-0 -51418-5 0  9999,2 53396  53.2177  13.1174 0001130 112.4219 247.6893 15.08833897 44868,6917.899,95.438,540.546,538.982,0.0
53396.0,STARLINK-4524,PAYLOAD,2023-05-27 20:02:48,15.08842487,0.0001179,53.2179,8.9538,105.3077,254.8046,4.7929e-05,4.75e-06,0.0,0 STARLINK-4524,1 53396U 22097J   23147.83528608  .00000475  00000-0  47929-4 0  9994,2 53396  53.2179   8.9538 0001179 105.3077 254.8046 15.08842487 44519,6917.873,95.437,540.553,538.922,0.0
53396.0,STARLINK-4524,PAYLOAD,2023-05-27 21:38:11,15.08842519,0.0001053,53.2181,8.6592,83.4394,276.6718,7.2073e-05,8.6e-06,0.0,0 STARLINK-4524,1 53396U 22097J   23147.90152619  .00000860  00000-0  72073-4 0  9993,2 53396  53.2181   8.6592 0001053  83.4394 276.6718 15.08842519 45018,6917.873,95.437,540.466,539.009,0.0
53396.0,STARLINK-4524,PAYLOAD,2023-05-28 21:28:59,15.08842406,9.86e-05,53.2174,4.199,81.9613,278.1491,0.00011135,1.485e-05,0.0,0 STARLINK-4524,1 53396U 22097J   23148.89512773  .00001485  00000-0  11135-3 0  9998,2 53396  53.2174   4.1990 0000986  81.9613 278.1491 15.08842406 44675,6917.873,95.437,540.42,539.056,0.0
53396.0,STARLINK-4524,PAYLOAD,2023-05-29 13:22:50,15.08841458,0.0001314,53.2182,1.2282,74.1883,285.9254,-8.0684e-06,-4.16e-06,0.0,0 STARLINK-4524,1 53396U 22097J   23149.55753169 -.00000416  00000-0 -80684-5 0  9990,2 53396  53.2182   1.2282 0001314  74.1883 285.9254 15.08841458 45260,6917.876,95.437,540.65,538.832,0.0
53396.0,STARLINK-4524,PAYLOAD,2023-05-29 16:33:38,15.08772904,0.0001393,53.2174,0.6312,84.2559,275.8592,0.00079657,0.00012389,0.0,0 STARLINK-4524,1 53396U 22097J   23149.69002477  .00012389  00000-0  79657-3 0  9990,2 53396  53.2174   0.6312 0001393  84.2559 275.8592 15.08772904 44796,6918.085,95.442,540.914,538.987,0.0
53396.0,STARLINK-4524,PAYLOAD,2023-05-29 21:19:46,15.0883941,9.79e-05,53.2173,359.739,86.467,273.6434,1.6041e-05,-3.2e-07,0.0,0 STARLINK-4524,1 53396U 22097J   23149.88873391 -.00000032  00000-0  16041-4 0  9994,2 53396  53.2173 359.7390 0000979  86.4670 273.6434 15.08839410 45312,6917.882,95.438,540.424,539.07,0.0
53396.0,STARLINK-4524,PAYLOAD,2023-05-29 22:55:09,15.08825669,0.0001099,53.2174,359.4416,91.1543,268.9575,0.00024577,3.624e-05,0.0,0 STARLINK-4524,1 53396U 22097J   23149.95497612  .00003624  00000-0  24577-3 0  9991,2 53396  53.2174 359.4416 0001099  91.1543 268.9575 15.08825669 44835,6917.924,95.438,540.549,539.029,0.0
53396.0,STARLINK-4524,PAYLOAD,2023-05-30 13:13:37,15.08840768,9.87e-05,53.2172,356.7648,93.8261,266.2844,2.6305e-05,1.31e-06,0.0,0 STARLINK-4524,1 53396U 22097J   23150.55113332  .00000131  00000-0  26305-4 0  9995,2 53396  53.2172 356.7648 0000987  93.8261 266.2844 15.08840768 45413,6917.878,95.438,540.426,539.06,0.0
